NORAD_CAT_ID,OBJECT_NAME,OBJECT_TYPE,EPOCH,MEAN_MOTION,ECCENTRICITY,INCLINATION,RA_OF_ASC_NODE,ARG_OF_PERICENTER,MEAN_ANOMALY,BSTAR,MEAN_MOTION_DOT,MEAN_MOTION_DDOT,TLE_LINE0,TLE_LINE1,TLE_LINE2,SEMIMAJOR_AXIS,PERIOD,APOGEE,PERIGEE,DECAYED
52588.0,STARLINK-3917,PAYLOAD,2023-10-28 22:40:57,15.08844427,0.0001306,53.2187,32.1314,98.8227,261.2913,6.344e-06,-1.87e-06,0.0,0 STARLINK-3917,1 52588U 22051BE  23301.94510889 -.00000187  00000-0  63440-5 0  9990,2 52588  53.2187  32.1314 0001306  98.8227 261.2913 15.08844427 81417,6917.867,95.437,540.635,538.828,0.0
52588.0,STARLINK-3917,PAYLOAD,2023-10-29 12:59:24,15.08857265,0.0001257,53.2177,29.4568,92.7654,267.3482,0.00024707,3.648e-05,0.0,0 STARLINK-3917,1 52588U 22051BE  23302.54126016  .00003648  00000-0  24707-3 0  9997,2 52588  53.2177  29.4568 0001257  92.7654 267.3482 15.08857265 81500,6917.828,95.436,540.562,538.823,0.0
52588.0,STARLINK-3917,PAYLOAD,2023-10-30 04:53:17,15.08825113,0.0001683,53.2177,26.4829,98.7934,261.3248,2.6744e-05,1.37e-06,0.0,0 STARLINK-3917,1 52588U 22051BE  23303.20367935  .00000137  00000-0  26744-4 0  9992,2 52588  53.2177  26.4829 0001683  98.7934 261.3248 15.08825113 81609,6917.926,95.438,540.955,538.627,0.0
52588.0,STARLINK-3917,PAYLOAD,2023-10-30 12:50:13,15.08835754,0.0001289,53.2175,24.9961,106.2387,253.8747,0.00016433,2.328e-05,0.0,0 STARLINK-3917,1 52588U 22051BE  23303.53487460  .00002328  00000-0  16433-3 0  9991,2 52588  53.2175  24.9961 0001289 106.2387 253.8747 15.08835754 81653,6917.893,95.438,540.65,538.867,0.0
52588.0,STARLINK-3917,PAYLOAD,2023-10-31 14:16:23,15.08834759,0.0001606,53.219,20.2368,92.8173,267.3003,4.1433e-05,3.71e-06,0.0,0 STARLINK-3917,1 52588U 22051BE  23304.59472082  .00000371  00000-0  41433-4 0  9997,2 52588  53.2190  20.2368 0001606  92.8173 267.3003 15.08834759 81745,6917.896,95.438,540.872,538.65,0.0
52588.0,STARLINK-3917,PAYLOAD,2023-10-31 22:13:19,15.08839921,0.0001389,53.218,18.7518,94.1805,265.9346,-1.606e-05,-5.44e-06,0.0,0 STARLINK-3917,1 52588U 22051BE  23304.92591833 -.00000544  00000-0 -16060-4 0  9992,2 52588  53.2180  18.7518 0001389  94.1805 265.9346 15.08839921 81793,6917.881,95.438,540.707,538.785,0.0
52588.0,STARLINK-3917,PAYLOAD,2023-11-01 12:31:47,15.08850351,0.0001418,53.2179,16.0771,85.2934,274.822,0.0003187,4.789e-05,0.0,0 STARLINK-3917,1 52588U 22051BE  23305.52207649  .00004789  00000-0  31870-3 0  9996,2 52588  53.2179  16.0771 0001418  85.2934 274.8220 15.08850351 81958,6917.849,95.437,540.695,538.733,0.0
52588.0,STARLINK-3917,PAYLOAD,2023-11-01 22:04:06,15.08844653,0.000144,53.2176,14.2938,96.5244,263.5912,0.00020633,2.998e-05,0.0,0 STARLINK-3917,1 52588U 22051BE  23305.91951955  .00002998  00000-0  20633-3 0  9990,2 52588  53.2176  14.2938 0001440  96.5244 263.5912 15.08844653 81944,6917.866,95.437,540.727,538.735,0.0
52588.0,STARLINK-3917,PAYLOAD,2023-11-02 04:25:39,15.08833462,0.0001432,53.2186,13.103,96.0658,264.0497,6.6769e-05,7.75e-06,0.0,0 STARLINK-3917,1 52588U 22051BE  23306.18448524  .00000775  00000-0  66769-4 0  9995,2 52588  53.2186  13.1030 0001432  96.0658 264.0497 15.08833462 82054,6917.9,95.438,540.756,538.775,0.0
52588.0,STARLINK-3917,PAYLOAD,2023-11-02 10:47:11,15.08846809,0.0001578,53.2178,11.9133,101.2947,258.8223,0.00013308,1.831e-05,0.0,0 STARLINK-3917,1 52588U 22051BE  23306.44943740  .00001831  00000-0  13308-3 0  9998,2 52588  53.2178  11.9133 0001578 101.2947 258.8223 15.08846809 82097,6917.86,95.437,540.816,538.633,0.0
52588.0,STARLINK-3917,PAYLOAD,2023-11-03 04:16:26,15.08842332,0.0001865,53.2183,8.6423,103.3567,256.7633,2.1665e-05,5.7e-07,0.0,0 STARLINK-3917,1 52588U 22051BE  23307.17808038  .00000057  00000-0  21665-4 0  9994,2 52588  53.2183   8.6423 0001865 103.3567 256.7633 15.08842332 82200,6917.873,95.437,541.028,538.448,0.0
52588.0,STARLINK-3917,PAYLOAD,2023-11-03 10:37:58,15.08841945,0.0001711,53.2188,7.4535,88.1763,271.9425,2.9169e-05,1.76e-06,0.0,0 STARLINK-3917,1 52588U 22051BE  23307.44304245  .00000176  00000-0  29169-4 0  9994,2 52588  53.2188   7.4535 0001711  88.1763 271.9425 15.08841945 82177,6917.874,95.437,540.923,538.556,0.0
52588.0,STARLINK-3917,PAYLOAD,2023-11-04 10:28:45,15.08844224,0.0001622,53.2165,2.9931,88.5582,271.5596,0.00011148,1.487e-05,0.0,0 STARLINK-3917,1 52588U 22051BE  23308.43664082  .00001487  00000-0  11148-3 0  9995,2 52588  53.2165   2.9931 0001622  88.5582 271.5596 15.08844224 82398,6917.867,95.437,540.855,538.61,0.0
52588.0,STARLINK-3917,PAYLOAD,2023-11-05 10:19:32,15.08850968,0.0001658,53.2184,358.5367,90.754,269.3643,0.00025067,3.705e-05,0.0,0 STARLINK-3917,1 52588U 22051BE  23309.43023624  .00003705  00000-0  25067-3 0  9997,2 52588  53.2184 358.5367 0001658  90.7540 269.3643 15.08850968 82479,6917.847,95.437,540.859,538.565,0.0
52588.0,STARLINK-3917,PAYLOAD,2023-11-05 19:51:50,15.08849585,0.0001549,53.2179,356.7474,91.7567,268.3603,0.00011564,1.553e-05,0.0,0 STARLINK-3917,1 52588U 22051BE  23309.82767346  .00001553  00000-0  11564-3 0  9992,2 52588  53.2179 356.7474 0001549  91.7567 268.3603 15.08849585 82604,6917.851,95.437,540.788,538.645,0.0
52588.0,STARLINK-3917,PAYLOAD,2023-11-06 10:10:18,15.08861528,0.000167,53.218,354.0741,93.429,266.6893,0.00033044,4.978e-05,0.0,0 STARLINK-3917,1 52588U 22051BE  23310.42382498  .00004978  00000-0  33044-3 0  9992,2 52588  53.2180 354.0741 0001670  93.4290 266.6893 15.08861528 82693,6917.815,95.436,540.835,538.524,0.0
52588.0,STARLINK-3917,PAYLOAD,2023-11-06 19:42:40,15.08793046,0.0001959,53.2172,352.2883,83.6535,276.4681,-0.00065969,-0.00010758,0.0,0 STARLINK-3917,1 52588U 22051BE  23310.82130651 -.00010758  00000-0 -65969-3 0  9994,2 52588  53.2172 352.2883 0001959  83.6535 276.4681 15.08793046 82754,6918.024,95.441,541.244,538.534,0.0
52588.0,STARLINK-3917,PAYLOAD,2023-11-07 08:25:45,15.08816394,0.0001491,53.2179,349.9081,94.0419,266.0744,-0.0001379,-2.481e-05,0.0,0 STARLINK-3917,1 52588U 22051BE  23311.35122463 -.00002481  00000-0 -13790-3 0  9994,2 52588  53.2179 349.9081 0001491  94.0419 266.0744 15.08816394 82838,6917.953,95.439,540.849,538.786,0.0
52588.0,STARLINK-3917,PAYLOAD,2023-11-07 19:33:27,15.08838335,0.0001406,53.2179,347.8282,95.8035,264.3118,0.00011911,1.608e-05,0.0,0 STARLINK-3917,1 52588U 22051BE  23311.81489758  .00001608  00000-0  11911-3 0  9999,2 52588  53.2179 347.8282 0001406  95.8035 264.3118 15.08838335 82900,6917.885,95.438,540.723,538.778,0.0
52588.0,STARLINK-3917,PAYLOAD,2023-11-08 11:27:17,15.088551,0.0001595,53.2177,344.8534,100.2648,259.8524,0.00036554,5.537e-05,0.0,0 STARLINK-3917,1 52588U 22051BE  23312.47729079  .00005537  00000-0  36554-3 0  9990,2 52588  53.2177 344.8534 0001595 100.2648 259.8524 15.08855100 83006,6917.834,95.437,540.803,538.596,0.0
52588.0,STARLINK-3917,PAYLOAD,2023-11-08 19:24:13,15.08848312,0.0001354,53.2181,343.3681,100.0432,260.0713,0.00020919,3.044e-05,0.0,0 STARLINK-3917,1 52588U 22051BE  23312.80849281  .00003044  00000-0  20919-3 0  9994,2 52588  53.2181 343.3681 0001354 100.0432 260.0713 15.08848312 83056,6917.855,95.437,540.657,538.783,0.0
52588.0,STARLINK-3917,PAYLOAD,2023-11-09 01:45:46,15.08827692,0.000134,53.2187,342.18,92.8174,267.2972,0.00051855,7.972e-05,0.0,0 STARLINK-3917,1 52588U 22051BE  23313.07345878  .00007972  00000-0  51855-3 0  9994,2 52588  53.2187 342.1800 0001340  92.8174 267.2972 15.08827692 83096,6917.918,95.438,540.71,538.856,0.0
52588.0,STARLINK-3917,PAYLOAD,2023-11-09 11:18:04,15.08853101,0.0001647,53.2184,340.3913,103.2229,256.8947,0.00040287,6.132e-05,0.0,0 STARLINK-3917,1 52588U 22051BE  23313.47088764  .00006132  00000-0  40287-3 0  9990,2 52588  53.2184 340.3913 0001647 103.2229 256.8947 15.08853101 83153,6917.84,95.437,540.845,538.566,0.0
52588.0,STARLINK-3917,PAYLOAD,2023-11-10 01:36:33,15.08851645,0.0001975,53.2186,337.7204,89.6919,270.43,4.6317e-05,4.49e-06,0.0,0 STARLINK-3917,1 52588U 22051BE  23314.06705424  .00000449  00000-0  46317-4 0  9991,2 52588  53.2186 337.7204 0001975  89.6919 270.4300 15.08851645 83241,6917.845,95.437,541.076,538.344,0.0
52588.0,STARLINK-3917,PAYLOAD,2023-11-10 07:58:05,15.08856285,0.0001471,53.2183,336.528,97.4627,262.6533,-2.8283e-05,-7.38e-06,0.0,0 STARLINK-3917,1 52588U 22051BE  23314.33200957 -.00000738  00000-0 -28283-4 0  9997,2 52588  53.2183 336.5280 0001471  97.4627 262.6533 15.08856285 83216,6917.831,95.437,540.713,538.678,0.0
52588.0,STARLINK-3917,PAYLOAD,2023-11-10 19:05:47,15.08854769,0.0001412,53.2181,334.4468,91.8476,268.2678,-4.7512e-05,-1.044e-05,0.0,0 STARLINK-3917,1 52588U 22051BE  23314.79568633 -.00001044  00000-0 -47512-4 0  9992,2 52588  53.2181 334.4468 0001412  91.8476 268.2678 15.08854769 83288,6917.835,95.437,540.677,538.723,0.0
52588.0,STARLINK-3917,PAYLOAD,2023-11-11 01:27:20,15.08841535,0.0001544,53.2183,333.2572,97.3262,262.7906,9.8328e-06,-1.32e-06,0.0,0 STARLINK-3917,1 52588U 22051BE  23315.06065274 -.00000132  00000-0  98328-5 0  9994,2 52588  53.2183 333.2572 0001544  97.3262 262.7906 15.08841535 83395,6917.876,95.437,540.809,538.673,0.0
52588.0,STARLINK-3917,PAYLOAD,2023-11-11 07:48:52,15.08846221,0.0001427,53.2183,332.0672,97.6831,262.4323,-4.4619e-05,-9.98e-06,0.0,0 STARLINK-3917,1 52588U 22051BE  23315.32561056 -.00000998  00000-0 -44619-4 0  9996,2 52588  53.2183 332.0672 0001427  97.6831 262.4323 15.08846221 83362,6917.861,95.437,540.714,538.739,0.0
52588.0,STARLINK-3917,PAYLOAD,2023-11-12 10:50:25,15.08844818,0.0001949,53.219,327.0104,107.0687,253.0519,-8.0857e-06,-4.17e-06,0.0,0 STARLINK-3917,1 52588U 22051BE  23316.45168970 -.00000417  00000-0 -80857-5 0  9990,2 52588  53.2190 327.0104 0001949 107.0687 253.0519 15.08844818 83608,6917.866,95.437,541.079,538.382,0.0
52588.0,STARLINK-3917,PAYLOAD,2023-11-13 07:30:26,15.08848175,0.0001572,53.2176,323.1445,89.0748,271.0424,0.00014303,1.99e-05,0.0,0 STARLINK-3917,1 52588U 22051BE  23317.31280555  .00001990  00000-0  14303-3 0  9996,2 52588  53.2176 323.1445 0001572  89.0748 271.0424 15.08848175 83667,6917.855,95.437,540.808,538.633,0.0
